*******************************************************************************
Ephemeris / WWW_USER Mon Mar 10 07:19:19 2025 Pasadena, USA      / Horizons    
*******************************************************************************
Target body name: (2018 PU7)                      {source: JPL#13}
Center body name: Earth (399)                     {source: DE441}
Center-site name: Mauna Kea
*******************************************************************************
Start time      : A.D. 2018-Aug-18 04:58:00.0000 UT      
Stop  time      : A.D. 2018-Aug-18 15:53:00.0000 UT      
Step-size       : 1 minutes
*******************************************************************************
Target pole/equ : undefined
Target radii    : undefined                                                    
Center geodetic : 204.5278, 19.8260847, 4.21024   {E-lon(deg),Lat(deg),Alt(km)}
Center cylindric: 204.5278, 6006.35451, 2151.0229 {E-lon(deg),Dxy(km),Dz(km)}
Center pole/equ : ITRF93                          {East-longitude positive}
Center radii    : 6378.137, 6378.137, 6356.752 km {Equator_a, b, pole_c}       
Target primary  : Sun
Vis. interferer : MOON (R_eq= 1737.400) km        {source: DE441}
Rel. light bend : Sun                             {source: DE441}
Rel. lght bnd GM: 1.3271E+11 km^3/s^2                                          
Small-body perts: Yes                             {source: SB441-N16}
Atmos refraction: NO (AIRLESS)
RA format       : HMS
Time format     : CAL 
Calendar mode   : Mixed Julian/Gregorian
RTS-only print  : NO       
EOP file        : eop.250307.p250603                                           
EOP coverage    : DATA-BASED 1962-JAN-20 TO 2025-MAR-07. PREDICTS-> 2025-JUN-02
Units conversion: 1 au= 149597870.700 km, c= 299792.458 km/s, 1 day= 86400.0 s 
Table cut-offs 1: Elevation (-90.0deg=NO ),Airmass (>38.000=NO), Daylight (YES)
Table cut-offs 2: Solar elongation (  0.0,180.0=NO ),Local Hour Angle( 0.0=NO )
Table cut-offs 3: RA/DEC angular rate (     0.0=NO )                           
*******************************************************************************
Initial IAU76/J2000 heliocentric ecliptic osculating elements (au, days, deg.):
  EPOCH=  2458344.5 ! 2018-Aug-14.00 (TDB)         Residual RMS= .35253        
   EC= .5418411610879256   QR= .9908981152950816   TP= 2458306.0483912583      
   OM= 307.3200871504195   W=  329.2166965634538   IN= 6.906215163822786       
  Equivalent ICRF heliocentric cartesian coordinates (au, au/d):
   X= 8.533350742151261E-01  Y=-6.504796009993946E-01  Z=-2.480927258064065E-01
  VX= 1.615085148536055E-02 VY= 9.661045842052620E-03 VZ= 6.810490395822813E-03
Asteroid physical parameters (km, seconds, rotational period in hours):        
   GM= n.a.                RAD= n.a.               ROTPER= n.a.                
   H= 23.4                 G= .150                 B-V= n.a.                   
                           ALBEDO= n.a.            STYP= n.a.                  
*******************************************************************************
 Date__(UT)__HR:MN     R.A._________(ICRF)_________DEC
******************************************************
$$SOE
 2018-Aug-18 15:13 A   21 22 10.817154 +06 01 41.47032
 2018-Aug-18 15:14 N   21 22 10.942053 +06 01 42.36077
 2018-Aug-18 15:15 N   21 22 11.067030 +06 01 43.25111
 2018-Aug-18 15:16 N   21 22 11.192083 +06 01 44.14134
 2018-Aug-18 15:17 N   21 22 11.317215 +06 01 45.03145
 2018-Aug-18 15:18 N   21 22 11.442424 +06 01 45.92144
 2018-Aug-18 15:19 N   21 22 11.567711 +06 01 46.81132
 2018-Aug-18 15:20 N   21 22 11.693076 +06 01 47.70109
 2018-Aug-18 15:21 N   21 22 11.818518 +06 01 48.59074
 2018-Aug-18 15:22 N   21 22 11.944038 +06 01 49.48028
 2018-Aug-18 15:23 N   21 22 12.069637 +06 01 50.36971
 2018-Aug-18 15:24 N   21 22 12.195313 +06 01 51.25903
 2018-Aug-18 15:25 N   21 22 12.321067 +06 01 52.14823
 2018-Aug-18 15:26 N   21 22 12.446899 +06 01 53.03733
 2018-Aug-18 15:27 N   21 22 12.572810 +06 01 53.92632
 2018-Aug-18 15:28 N   21 22 12.698798 +06 01 54.81520
 2018-Aug-18 15:29 N   21 22 12.824865 +06 01 55.70397
 2018-Aug-18 15:30 N   21 22 12.951010 +06 01 56.59263
 2018-Aug-18 15:31 N   21 22 13.077234 +06 01 57.48119
 2018-Aug-18 15:32 N   21 22 13.203535 +06 01 58.36964
 2018-Aug-18 15:33 N   21 22 13.329915 +06 01 59.25799
 2018-Aug-18 15:34 N   21 22 13.456374 +06 02 00.14623
 2018-Aug-18 15:35 N   21 22 13.582910 +06 02 01.03436
 2018-Aug-18 15:36 N   21 22 13.709526 +06 02 01.92239
 2018-Aug-18 15:37 N   21 22 13.836219 +06 02 02.81032
 2018-Aug-18 15:38 N   21 22 13.962992 +06 02 03.69815
 2018-Aug-18 15:39 N   21 22 14.089842 +06 02 04.58587
 2018-Aug-18 15:40 N   21 22 14.216772 +06 02 05.47349
 2018-Aug-18 15:41 C   21 22 14.343779 +06 02 06.36102
 2018-Aug-18 15:42 C   21 22 14.470866 +06 02 07.24844
 2018-Aug-18 15:43 C   21 22 14.598031 +06 02 08.13576
 2018-Aug-18 15:44 C   21 22 14.725274 +06 02 09.02298
 2018-Aug-18 15:45 C   21 22 14.852596 +06 02 09.91011
 2018-Aug-18 15:46 C   21 22 14.979997 +06 02 10.79713
 2018-Aug-18 15:47 C   21 22 15.107477 +06 02 11.68406
 2018-Aug-18 15:48 C   21 22 15.235035 +06 02 12.57090
 2018-Aug-18 15:49 C   21 22 15.362672 +06 02 13.45763
 2018-Aug-18 15:50 C   21 22 15.490387 +06 02 14.34427
 2018-Aug-18 15:51 C   21 22 15.618181 +06 02 15.23082
 2018-Aug-18 15:52 C   21 22 15.746054 +06 02 16.11727
 2018-Aug-18 15:53 C   21 22 15.874006 +06 02 17.00363
